SES-1                   
1 36516U 10016A   26161.31989433 -.00000097  00000+0  00000+0 0  9990
2 36516   0.0121 330.9741 0002669 109.7362 192.1423  1.00271371 58967
ASTRA 3B                
1 36581U 10021A   26161.34459446  .00000155  00000+0  00000+0 0  9991
2 36581   1.4529  83.6386 0004491 353.8760 328.7659  1.00275201 58797
COMSATBW-2              
1 36582U 10021B   26161.27121299  .00000105  00000+0  00000+0 0  9991
2 36582   0.0270  45.1236 0002627  48.9183 275.4206  1.00270362 58882
BEIDOU-2 G3             
1 36590U 10024A   26160.85662627 -.00000121  00000+0  00000+0 0  9990
2 36590   4.4973  61.5460 0008276 351.4089 233.3626  1.00272605 58693
BADR-5                  
1 36592U 10025A   26161.20333807  .00000171  00000+0  00000+0 0  9992
2 36592   0.0675 112.3566 0003022  80.5388 169.3962  1.00266778 53144
COMS 1                  
1 36744U 10032A   26154.99142485 -.00000334  00000+0  00000+0 0  9999
2 36744   4.7750  75.5286 0001016   4.5847 297.3769  1.00270643 50953
ARABSAT-5A              
1 36745U 10032B   26161.27467965  .00000171  00000+0  00000+0 0  9990
2 36745   0.0766  54.3846 0005558  45.2537 288.3542  1.00270658 58571
ECHOSTAR 15             
1 36792U 10034A   26161.42461551  .00000017  00000+0  00000+0 0  9995
2 36792   0.0176  35.4933 0001701  46.9525 210.3893  1.00271733 58250
BEIDOU-2 IGSO-1         
1 36828U 10036A   26161.43264748 -.00000027  00000+0  00000+0 0  9999
2 36828  54.3014 163.0209 0059226 225.1536 134.0358  1.00274227 58029
NILESAT 201             
1 36830U 10037A   26161.33852774 -.00000040  00000+0  00000+0 0  9999
2 36830   0.0402 134.2396 0004394 335.0911 264.2534  1.00271853 58307
RASCOM-QAF 1R           
1 36831U 10037B   26161.34026110  .00000036  00000+0  00000+0 0  9992
2 36831   0.0088  56.0559 0006794  21.9789 306.0497  1.00271143 58237
AEHF-1 (USA 214)        
1 36868U 10039A   26161.00322488  .00000162  00000+0  00000+0 0  9994
2 36868   8.2005  68.1408 0003960   6.0643 215.2467  1.00271280 53581
XM-5                    
1 37185U 10053A   26161.44836416 -.00000005  00000+0  00000+0 0  9999
2 37185   0.0649 273.7104 0002978 284.6234 106.6885  1.00269684 57411
BSAT-3B                 
1 37207U 10056B   26160.50619905 -.00000333  00000+0  00000+0 0  9999
2 37207   0.0791 249.8713 0001321 296.9420   3.1610  1.00271760 52025
BEIDOU-2 G4             
1 37210U 10057A   26161.54940999 -.00000096  00000+0  00000+0 0  9995
2 37210   3.6292  68.9871 0004963 198.8206 348.9041  1.00271648 57226
SKYTERRA 1              
1 37218U 10061A   26161.24856156 -.00000102  00000+0  00000+0 0  9994
2 37218   5.1097  50.8576 0002524  15.7006 180.1894  1.00265424 57128
HYLAS 1                 
1 37237U 10065A   26160.98615956  .00000105  00000+0  00000+0 0  9992
2 37237   5.6243  73.1053 0000941 313.3129 240.7619  1.00272921  6817
INTELSAT 17 (IS-17)     
1 37238U 10065B   26161.46850264  .00000016  00000+0  00000+0 0  9991
2 37238   0.0097 125.3619 0002541 323.6570  44.4737  1.00272832 53187
BEIDOU-2 IGSO-2         
1 37256U 10068A   26160.74236155 -.00000225  00000+0  00000+0 0  9994
2 37256  47.5626 271.9271 0055147 212.2269 148.8480  1.00285942 56724
EUTELSAT KA-SAT 9A      
1 37258U 10069A   26161.16086221  .00000079  00000+0  00000+0 0  9997
2 37258   0.0606  10.2646 0004024 122.2715 192.9096  1.00272454 43938
HISPASAT 30W-5          
1 37264U 10070A   26161.33393440 -.00000199  00000+0  00000+0 0  9993
2 37264   0.0393 126.1489 0005133 337.8152 244.9483  1.00268660 53114
KOREASAT 6              
1 37265U 10070B   26161.46503130 -.00000094  00000+0  00000+0 0  9991
2 37265   0.0191 319.1892 0002162 128.3310 138.6084  1.00271257 56701
BEIDOU-2 IGSO-3         
1 37384U 11013A   26160.59429605 -.00000192  00000+0  00000+0 0  9997
2 37384  62.3960  40.2253 0034379 184.4451 355.1654  1.00270057 55586
INTELSAT 28 (IS-28)     
1 37392U 11016A   26161.33367440 -.00000208  00000+0  00000+0 0  9998
2 37392   1.7876  82.7052 0003728   1.5407 262.8701  1.00271753 53219
YAHSAT 1A               
1 37393U 11016B   26160.92025954  .00000000  00000+0  00000+0 0  9993
2 37393   0.0174 353.2749 0002773  97.6716 191.1113  1.00271196 42333
SBIRS GEO-1 (USA 230)   
1 37481U 11019A   26160.73828483  .00000115  00000+0  00000+0 0  9998
2 37481   4.5203  53.1313 0002174  14.9566 147.5992  1.00272585 55322
TELSTAR 14R             
1 37602U 11021A   26161.04223795 -.00000262  00000+0  00000+0 0  9990
2 37602   0.0265  68.0297 0002303 354.4143 148.1812  1.00271201 55769
GSAT-8                  
1 37605U 11022A   26161.20827808  .00000102  00000+0  00000+0 0  9999
2 37605   2.1121  81.9066 0002274 207.7408  98.9733  1.00271389 53146
ST-2                    
1 37606U 11022B   26161.42866080 -.00000193  00000+0  00000+0 0  9990
2 37606   0.0128 288.3274 0001587 166.2818  46.5038  1.00267924 55212
ZHONGXING-10            
1 37677U 11026A   26161.49949450 -.00000171  00000+0  00000+0 0  9998
2 37677   1.0283  84.2884 0003553   0.3029  79.6133  1.00270117 54939
SES-3                   
1 37748U 11035A   26161.25480156 -.00000084  00000+0  00000+0 0  9997
2 37748   1.3079  83.1617 0002566 351.3488 172.8258  1.00270641 54528
KAZSAT-2                
1 37749U 11035B   26161.42831411 -.00000179  00000+0  00000+0 0  9996
2 37749   0.0333 246.6011 0001351 264.4347 348.4358  1.00268963 53335
