OBJECT_NAME,OBJECT_ID,EPOCH,MEAN_MOTION,ECCENTRICITY,INCLINATION,RA_OF_ASC_NODE,ARG_OF_PERICENTER,MEAN_ANOMALY,EPHEMERIS_TYPE,CLASSIFICATION_TYPE,NORAD_CAT_ID,ELEMENT_SET_NO,REV_AT_EPOCH,BSTAR,MEAN_MOTION_DOT,MEAN_MOTION_DDOT
SES-1,2010-016A,2026-06-10T07:40:38.870112,1.00271371,.0002669,0.0121,330.9741,109.7362,192.1423,0,U,36516,999,5896,0,-.97E-6,0
ASTRA 3B,2010-021A,2026-06-10T08:16:12.961344,1.00275201,.0004491,1.4529,83.6386,353.8760,328.7659,0,U,36581,999,5879,0,.155E-5,0
COMSATBW-2,2010-021B,2026-06-10T06:30:32.802336,1.00270362,.0002627,0.0270,45.1236,48.9183,275.4206,0,U,36582,999,5888,0,.105E-5,0
BEIDOU-2 G3,2010-024A,2026-06-09T20:33:32.509728,1.00272605,.00082768,4.4973,61.5460,351.4089,233.3626,0,U,36590,999,5869,0,-.121E-5,0
BADR-5,2010-025A,2026-06-10T04:52:48.409248,1.00266778,.0003022,0.0675,112.3566,80.5388,169.3962,0,U,36592,999,5314,0,.171E-5,0
COMS 1,2010-032A,2026-06-03T23:47:39.107040,1.00270643,.0001016,4.7750,75.5286,4.5847,297.3769,0,U,36744,999,5095,0,-.334E-5,0
ARABSAT-5A,2010-032B,2026-06-10T06:35:32.321760,1.00270658,.0005558,0.0766,54.3846,45.2537,288.3542,0,U,36745,999,5857,0,.171E-5,0
ECHOSTAR 15,2010-034A,2026-06-10T10:11:26.780064,1.00271733,.0001701,0.0176,35.4933,46.9525,210.3893,0,U,36792,999,5825,0,.17E-6,0
BEIDOU-2 IGSO-1,2010-036A,2026-06-10T10:23:00.742272,1.00274227,.0059226,54.3014,163.0209,225.1536,134.0358,0,U,36828,999,5802,0,-.27E-6,0
NILESAT 201,2010-037A,2026-06-10T08:07:28.796736,1.00271853,.0004394,0.0402,134.2396,335.0911,264.2534,0,U,36830,999,5830,0,-.4E-6,0
RASCOM-QAF 1R,2010-037B,2026-06-10T08:09:58.559040,1.00271143,.0006794,0.0088,56.0559,21.9789,306.0497,0,U,36831,999,5823,0,.36E-6,0
AEHF-1 (USA 214),2010-039A,2026-06-10T00:04:38.629632,1.00271280,.00039607,8.2005,68.1408,6.0643,215.2467,0,U,36868,999,5358,0,.162E-5,0
XM-5,2010-053A,2026-06-10T10:45:38.663424,1.00269684,.0002978,0.0649,273.7104,284.6234,106.6885,0,U,37185,999,5741,0,-.5E-7,0
BSAT-3B,2010-056B,2026-06-09T12:08:55.597920,1.00271760,.00013214,0.0791,249.8713,296.9420,3.1610,0,U,37207,999,5202,0,-.333E-5,0
BEIDOU-2 G4,2010-057A,2026-06-10T13:11:09.023136,1.00271648,.0004963,3.6292,68.9871,198.8206,348.9041,0,U,37210,999,5722,0,-.96E-6,0
SKYTERRA 1,2010-061A,2026-06-10T05:57:55.718784,1.00265424,.0002524,5.1097,50.8576,15.7006,180.1894,0,U,37218,999,5712,0,-.102E-5,0
HYLAS 1,2010-065A,2026-06-09T23:40:04.185984,1.00272921,.00009411,5.6243,73.1053,313.3129,240.7619,0,U,37237,999,681,0,.105E-5,0
INTELSAT 17 (IS-17),2010-065B,2026-06-10T11:14:38.628096,1.00272832,.0002541,0.0097,125.3619,323.6570,44.4737,0,U,37238,999,5318,0,.16E-6,0
BEIDOU-2 IGSO-2,2010-068A,2026-06-09T17:49:00.037920,1.00285942,.00551478,47.5626,271.9271,212.2269,148.8480,0,U,37256,999,5672,0,-.225E-5,0
EUTELSAT KA-SAT 9A,2010-069A,2026-06-10T03:51:38.494944,1.00272454,.00040241,0.0606,10.2646,122.2715,192.9096,0,U,37258,999,4393,0,.79E-6,0
HISPASAT 30W-5,2010-070A,2026-06-10T08:00:51.932160,1.00268660,.0005133,0.0393,126.1489,337.8152,244.9483,0,U,37264,999,5311,0,-.199E-5,0
KOREASAT 6,2010-070B,2026-06-10T11:09:38.704320,1.00271257,.0002162,0.0191,319.1892,128.3310,138.6084,0,U,37265,999,5670,0,-.94E-6,0
BEIDOU-2 IGSO-3,2011-013A,2026-06-09T14:15:47.178720,1.00270057,.00343795,62.3960,40.2253,184.4451,355.1654,0,U,37384,999,5558,0,-.192E-5,0
INTELSAT 28 (IS-28),2011-016A,2026-06-10T08:00:29.468160,1.00271753,.0003728,1.7876,82.7052,1.5407,262.8701,0,U,37392,999,5321,0,-.208E-5,0
YAHSAT 1A,2011-016B,2026-06-09T22:05:10.424256,1.00271196,.0002773,0.0174,353.2749,97.6716,191.1113,0,U,37393,999,4233,0,0,0
SBIRS GEO-1 (USA 230),2011-019A,2026-06-09T17:43:07.809312,1.00272585,.00021745,4.5203,53.1313,14.9566,147.5992,0,U,37481,999,5532,0,.115E-5,0
TELSTAR 14R,2011-021A,2026-06-10T01:00:49.358880,1.00271201,.00023031,0.0265,68.0297,354.4143,148.1812,0,U,37602,999,5576,0,-.262E-5,0
GSAT-8,2011-022A,2026-06-10T04:59:55.226112,1.00271389,.0002274,2.1121,81.9066,207.7408,98.9733,0,U,37605,999,5314,0,.102E-5,0
ST-2,2011-022B,2026-06-10T10:17:16.293120,1.00267924,.0001587,0.0128,288.3274,166.2818,46.5038,0,U,37606,999,5521,0,-.193E-5,0
ZHONGXING-10,2011-026A,2026-06-10T11:59:16.324800,1.00270117,.0003553,1.0283,84.2884,0.3029,79.6133,0,U,37677,999,5493,0,-.171E-5,0
SES-3,2011-035A,2026-06-10T06:06:54.854784,1.00270641,.0002566,1.3079,83.1617,351.3488,172.8258,0,U,37748,999,5452,0,-.84E-6,0
KAZSAT-2,2011-035B,2026-06-10T10:16:46.339104,1.00268963,.0001351,0.0333,246.6011,264.4347,348.4358,0,U,37749,999,5333,0,-.179E-5,0
